H1 CPF 01  gfz 2022 09 03 12  7462 tandemx   
H2 1003001  6202 36605    2022 09 03 12 59 42 2022 09 08 00 00 42   120 1 1  0 0 0
H9
10 0 59828  35982.000000  0    3461055.971  -5951682.485   -262734.527
10 0 59828  36102.000000  0    3259970.626  -5958755.077  -1162388.560
10 0 59828  36222.000000  0    3002784.152  -5857774.945  -2041604.986
10 0 59828  36342.000000  0    2695912.814  -5649662.501  -2884951.278
10 0 59828  36462.000000  0    2346605.339  -5337336.535  -3677656.743
10 0 59828  36582.000000  0    1962775.173  -4925665.336  -4405873.970
10 0 59828  36702.000000  0    1552822.752  -4421379.776  -5056917.858
10 0 59828  36822.000000  0    1125454.328  -3832952.570  -5619480.066
10 0 59828  36942.000000  0     689499.779  -3170446.604  -6083816.612
10 0 59828  37062.000000  0     253732.804  -2445335.944  -6441905.598
10 0 59828  37182.000000  0    -173302.192  -1670303.278  -6687574.424
10 0 59828  37302.000000  0    -583453.181   -859017.591  -6816595.886
10 0 59828  37422.000000  0    -969111.224    -25895.523  -6826753.194
10 0 59828  37542.000000  0   -1323347.840    814149.551  -6717872.847
10 0 59828  37662.000000  0   -1640036.588   1645967.364  -6491826.986
10 0 59828  37782.000000  0   -1913956.478   2454437.066  -6152504.485
10 0 59828  37902.000000  0   -2140877.537   3224736.423  -5705752.740
10 0 59828  38022.000000  0   -2317626.470   3942611.323  -5159286.985
10 0 59828  38142.000000  0   -2442131.546   4594640.421  -4522569.021
10 0 59828  38262.000000  0   -2513445.919   5168490.863  -3806653.696
10 0 59828  38382.000000  0   -2531747.486   5653157.711  -3024005.040
10 0 59828  38502.000000  0   -2498315.379   6039183.326  -2188286.918
10 0 59828  38622.000000  0   -2415483.989   6318853.319  -1314127.819
10 0 59828  38742.000000  0   -2286574.403   6486359.511   -416863.318
10 0 59828  38862.000000  0   -2115805.538   6537928.885    487735.121
10 0 59828  38982.000000  0   -1908186.210   6471915.703   1383746.003
10 0 59828  39102.000000  0   -1669388.784   6288846.184   2255389.864
10 0 59828  39222.000000  0   -1405609.515   5991418.316   3087315.696
10 0 59828  39342.000000  0   -1123420.157   5584459.134   3864877.579
10 0 59828  39462.000000  0    -829614.744   5074840.986   4574397.475
10 0 59828  39582.000000  0    -531053.361   4471356.254   5203409.943
10 0 59828  39702.000000  0    -234506.671   3784554.599   5740878.499
10 0 59828  39822.000000  0      53491.951   3026551.049   6177385.985
10 0 59828  39942.000000  0     326785.879   2210803.823   6505294.523
10 0 59828  40062.000000  0     579723.323   1351870.568   6718872.962
10 0 59828  40182.000000  0     807271.643    465145.016   6814391.324
10 0 59828  40302.000000  0    1005115.606   -433418.941   6790180.990
10 0 59828  40422.000000  0    1169738.382  -1327593.297   6646663.248
10 0 59828  40542.000000  0    1298484.105  -2201168.769   6386342.758
10 0 59828  40662.000000  0    1389600.882  -3038248.803   6013767.188
10 0 59828  40782.000000  0    1442263.341  -3823541.142   5535452.114
10 0 59828  40902.000000  0    1456574.432  -4542639.798   4959771.439
10 0 59828  41022.000000  0    1433547.758  -5182293.309   4296817.212
10 0 59828  41142.000000  0    1375069.730  -5730657.714   3558228.833
10 0 59828  41262.000000  0    1283842.085  -6177526.002   2756989.891
10 0 59828  41382.000000  0    1163305.568  -6514526.502   1907199.180
10 0 59828  41502.000000  0    1017546.476  -6735288.991   1023820.471
10 0 59828  41622.000000  0     851188.910  -6835572.925    122413.481
10 0 59828  41742.000000  0     669274.169  -6813354.331   -781149.378
10 0 59828  41862.000000  0     477130.186  -6668864.928  -1670973.476
10 0 59828  41982.000000  0     280236.969  -6404584.691  -2531429.542
10 0 59828  42102.000000  0      84090.382  -6025191.114  -3347433.627
10 0 59828  42222.000000  0    -105932.804  -5537466.012  -4104715.102
10 0 59828  42342.000000  0    -284705.232  -4950161.022  -4790066.343
10 0 59828  42462.000000  0    -447471.141  -4273827.606  -5391568.097
10 0 59828  42582.000000  0    -589957.836  -3520616.635  -5898789.140
10 0 59828  42702.000000  0    -708473.837  -2704051.601  -6302957.088
10 0 59828  42822.000000  0    -799992.277  -1838780.748  -6597098.814
10 0 59828  42942.000000  0    -862218.221   -940313.430  -6776149.286
10 0 59828  43062.000000  0    -893639.093    -24745.015  -6837030.026
10 0 59828  43182.000000  0    -893556.835    891526.338  -6778695.369
10 0 59828  43302.000000  0    -862102.015   1792085.521  -6602147.956
10 0 59828  43422.000000  0    -800229.919   2660786.923  -6310423.321
10 0 59828  43542.000000  0    -709698.073   3482037.813  -5908544.691
10 0 59828  43662.000000  0    -593025.704   4241076.185  -5403445.937
10 0 59828  43782.000000  0    -453435.339   4924236.474  -4803862.851
10 0 59828  43902.000000  0    -294778.196   5519200.746  -4120193.725
10 0 59828  44022.000000  0    -121444.024   6015229.399  -3364328.601
10 0 59828  44142.000000  0      61743.187   6403365.588  -2549449.981
10 0 59828  44262.000000  0     249641.361   6676609.556  -1689807.554
10 0 59828  44382.000000  0     436915.816   6830057.855   -800469.552
10 0 59828  44502.000000  0     618171.440   6861002.619    102944.684
10 0 59828  44622.000000  0     788088.266   6768987.765   1004545.525
10 0 59828  44742.000000  0     941556.512   6555819.302   1888460.995
10 0 59828  44862.000000  0    1073806.256   6225529.997   2739124.626
10 0 59828  44982.000000  0    1180529.852   5784300.877   3541556.923
10 0 59828  45102.000000  0    1257994.451   5240339.323   4281635.998
10 0 59828  45222.000000  0    1303142.932   4603718.946   4946350.984
10 0 59828  45342.000000  0    1313675.680   3886179.906   5524033.492
10 0 59828  45462.000000  0    1288116.804   3100902.242   6004556.519
10 0 59828  45582.000000  0    1225861.528   2262257.180   6379507.722
10 0 59828  45702.000000  0    1127203.488   1385538.213   6642331.397
10 0 59828  45822.000000  0     993342.310    486678.045   6788436.922
10 0 59828  45942.000000  0     826371.096   -418041.200   6815272.872
10 0 59828  46062.000000  0     629243.850  -1312281.779   6722370.272
10 0 59828  46182.000000  0     405723.083  -2179945.574   6511350.757
10 0 59828  46302.000000  0     160308.230  -3005464.108   6185900.443
10 0 59828  46422.000000  0    -101853.364  -3774079.878   5751707.705
10 0 59828  46542.000000  0    -375070.747  -4472110.741   5216367.561
10 0 59828  46662.000000  0    -653227.732  -5087196.986   4589256.896
10 0 59828  46782.000000  0    -929914.792  -5608529.734   3881377.889
10 0 59828  46902.000000  0   -1198571.345  -6027051.351   3105167.221
10 0 59828  47022.000000  0   -1452634.396  -6335621.809   2274277.856
10 0 59828  47142.000000  0   -1685690.412  -6529150.047   1403337.693
10 0 59828  47262.000000  0   -1891628.182  -6604685.489    507686.339
10 0 59828  47382.000000  0   -2064785.684  -6561465.428   -396903.376
10 0 59828  47502.000000  0   -2200088.499  -6400918.542  -1294511.975
10 0 59828  47622.000000  0   -2293176.692  -6126624.418  -2169361.919
10 0 59828  47742.000000  0   -2340517.113  -5744230.400  -3006102.368
10 0 59828  47862.000000  0   -2339497.904  -5261327.271  -3790084.067
10 0 59828  47982.000000  0   -2288502.701  -4687287.500  -4507617.220
10 0 59828  48102.000000  0   -2186963.349  -4033072.250  -5146207.186
10 0 59828  48222.000000  0   -2035390.753  -3311012.841  -5694765.235
10 0 59828  48342.000000  0   -1835383.543  -2534571.459  -6143792.407
10 0 59828  48462.000000  0   -1589613.939  -1718085.305  -6485533.723
10 0 59828  48582.000000  0   -1301791.788   -876500.397  -6714100.141
10 0 59828  48702.000000  0    -976608.757    -25100.363  -6825559.178
10 0 59828  48822.000000  0    -619662.581    820765.648  -6817994.589
10 0 59828  48942.000000  0    -237362.043   1645952.434  -6691535.504
10 0 59828  49062.000000  0     163184.315   2435782.579  -6448354.382
10 0 59828  49182.000000  0     574296.179   3176302.240  -6092635.873
10 0 59828  49302.000000  0     987865.447   3854525.745  -5630512.560
10 0 59828  49422.000000  0    1395511.504   4458662.852  -5069968.763
10 0 59828  49542.000000  0    1788746.984   4978327.683  -4420714.923
10 0 59828  49662.000000  0    2159151.286   5404725.105  -3694029.703
10 0 59828  49782.000000  0    2498547.641   5730808.538  -2902572.540
10 0 59828  49902.000000  0    2799180.724   5951407.462  -2060169.509
10 0 59828  50022.000000  0    3053890.905   6063320.399  -1181573.934
10 0 59828  50142.000000  0    3256279.857   6065369.722   -282205.609
10 0 59828  50262.000000  0    3400862.763   5958415.584    622125.478
10 0 59828  50382.000000  0    3483203.725   5745328.669   1515504.026
10 0 59828  50502.000000  0    3500031.431   5430923.375   2382197.347
10 0 59828  50622.000000  0    3449330.650   5021852.369   3206941.212
10 0 59828  50742.000000  0    3330408.269   4526462.885   3975216.592
10 0 59828  50862.000000  0    3143932.662   3954621.585   4673509.622
10 0 59828  50982.000000  0    2891941.786   3317511.266   5289553.901
10 0 59828  51102.000000  0    2577822.591   2627403.488   5812543.143
10 0 59828  51222.000000  0    2206266.152   1897416.937   6233315.832
10 0 59828  51342.000000  0    1783196.106   1141263.302   6544511.510
10 0 59828  51462.000000  0    1315671.155    372986.232   6740692.756
10 0 59828  51582.000000  0     811765.374   -393298.995   6818433.787
10 0 59828  51702.000000  0     280428.357  -1143664.151   6776378.118
10 0 59828  51822.000000  0    -268674.071  -1864621.573   6615260.808
10 0 59828  51942.000000  0    -825335.784  -2543366.549   6337895.864
10 0 59828  52062.000000  0   -1378999.071  -3168005.098   5949128.549
10 0 59828  52182.000000  0   -1918951.997  -3727763.091   5455755.543
10 0 59828  52302.000000  0   -2434535.283  -4213175.739   4866414.278
10 0 59828  52422.000000  0   -2915355.314  -4616254.172   4191438.795
99
